[{"OBJECT_NAME":"STARLINK-32651","OBJECT_ID":"2024-239P","EPOCH":"2026-03-09T14:45:58.597920","MEAN_MOTION":15.30172456,"ECCENTRICITY":0.0001348,"INCLINATION":53.1593,"RA_OF_ASC_NODE":194.1825,"ARG_OF_PERICENTER":105.2248,"MEAN_ANOMALY":254.8902,"EPHEMERIS_TYPE":0,"CLASSIFICATION_TYPE":"U","NORAD_CAT_ID":62314,"ELEMENT_SET_NO":999,"REV_AT_EPOCH":6937,"BSTAR":0.00096322,"MEAN_MOTION_DOT":0.00028253,"MEAN_MOTION_DDOT":0},{"OBJECT_NAME":"TEVEL2-4","OBJECT_ID":"2025-052D","EPOCH":"2026-03-09T16:39:37.129536","MEAN_MOTION":15.30925813,"ECCENTRICITY":0.0004733,"INCLINATION":97.4009,"RA_OF_ASC_NODE":325.1237,"ARG_OF_PERICENTER":95.3468,"MEAN_ANOMALY":264.8313,"EPHEMERIS_TYPE":0,"CLASSIFICATION_TYPE":"U","NORAD_CAT_ID":63213,"ELEMENT_SET_NO":999,"REV_AT_EPOCH":5487,"BSTAR":0.00070362503,"MEAN_MOTION_DOT":0.0002099,"MEAN_MOTION_DDOT":0}]
